STARLINK-37116          
1 68213U 26053G   26095.25227080  .00232496  00000+0  11763-2 0  9999
2 68213  97.2847 330.8764 0001832 118.1274 242.0180 15.80929909  4258
STARLINK-35854          
1 68214U 26053H   26095.25153511  .00316279  00000+0  15872-2 0  9994
2 68214  97.2841 330.8770 0001751 128.5901 231.5524 15.80893827  4234
STARLINK-36272          
1 68215U 26053J   26095.25002315 -.01991215  00000+0 -21116-1 0  9999
2 68215  97.2849 330.8430 0001874 106.5105 169.7426 15.67204662  4178
STARLINK-37014          
1 68216U 26053K   26095.25002060  .00219228  00000+0  11131-2 0  9998
2 68216  97.2842 330.8790 0002117 118.1666 241.9817 15.80886959  4259
STARLINK-37011          
1 68217U 26053L   26095.24927356  .00208588  00000+0  10611-2 0  9991
2 68217  97.2839 330.8796 0001794  52.3546 307.7885 15.80873773  4254
STARLINK-37108          
1 68218U 26053M   26095.24851994  .00274583  00000+0  13839-2 0  9999
2 68218  97.2839 330.8811 0001325  68.8224 291.3186 15.80906728  4257
STARLINK-37106          
1 68219U 26053N   26095.24776827  .00199887  00000+0  10179-2 0  9998
2 68219  97.2837 330.8818 0001908  57.5670 302.5782 15.80871826  4257
STARLINK-37030          
1 68220U 26053P   26095.30983879 -.00761911  00000+0 -46325-2 0  9991
2 68220  97.2840 330.9500 0001157 149.4756 210.6579 15.79370756  4262
STARLINK-37012          
1 68221U 26053Q   26095.24701613  .00284726  00000+0  14326-2 0  9997
2 68221  97.2841 330.8833 0001530  59.6048 300.5371 15.80916950  4255
STARLINK-37110          
1 68222U 26053R   26095.18220870  .00212417  00000+0  10799-2 0  9990
2 68222  97.2832 330.8176 0001048 106.8547 253.2837 15.80877227  4242
STARLINK-37025          
1 68223U 26053S   26095.24476097  .00260793  00000+0  13169-2 0  9996
2 68223  97.2839 330.8848 0001775  56.7312 303.4127 15.80900017  4251
STARLINK-36977          
1 68224U 26053T   26095.25002315 -.00029028  00000+0 -15962-3 0  9996
2 68224  97.2849 330.8907 0001387  99.3993 287.5277 15.79640467  4173
STARLINK-36960          
1 68225U 26053U   26095.24325917  .00190132  00000+0  96940-3 0  9990
2 68225  97.2839 330.8870 0001809  78.9981 281.1491 15.80871542  4238
STARLINK-37038          
1 68226U 26053V   26095.24175861  .00299915  00000+0  15074-2 0  9999
2 68226  97.2834 330.8886 0001939  67.9868 292.1606 15.80901186  4235
STARLINK-37083          
1 68227U 26053W   26095.24251051  .00257861  00000+0  13036-2 0  9996
2 68227  97.2834 330.8881 0001386  95.4125 264.7301 15.80883125  4227
STARLINK-37050          
1 68228U 26053X   26095.24100148  .00151138  00000+0  77432-3 0  9998
2 68228  97.2842 330.8906 0001306  57.4231 302.7163 15.80868790  4234
