[{"OBJECT_NAME":"STARLINK-37116","OBJECT_ID":"2026-053G","EPOCH":"2026-04-05T06:03:16.197120","MEAN_MOTION":15.80929909,"ECCENTRICITY":0.00018327,"INCLINATION":97.2847,"RA_OF_ASC_NODE":330.8764,"ARG_OF_PERICENTER":118.1274,"MEAN_ANOMALY":242.018,"EPHEMERIS_TYPE":0,"CLASSIFICATION_TYPE":"U","NORAD_CAT_ID":68213,"ELEMENT_SET_NO":999,"REV_AT_EPOCH":425,"BSTAR":0.0011763217,"MEAN_MOTION_DOT":0.00232496,"MEAN_MOTION_DDOT":0},{"OBJECT_NAME":"STARLINK-35854","OBJECT_ID":"2026-053H","EPOCH":"2026-04-05T06:02:12.633504","MEAN_MOTION":15.80893827,"ECCENTRICITY":0.00017512,"INCLINATION":97.2841,"RA_OF_ASC_NODE":330.877,"ARG_OF_PERICENTER":128.5901,"MEAN_ANOMALY":231.5524,"EPHEMERIS_TYPE":0,"CLASSIFICATION_TYPE":"U","NORAD_CAT_ID":68214,"ELEMENT_SET_NO":999,"REV_AT_EPOCH":423,"BSTAR":0.0015871507,"MEAN_MOTION_DOT":0.00316279,"MEAN_MOTION_DDOT":0},{"OBJECT_NAME":"STARLINK-36272","OBJECT_ID":"2026-053J","EPOCH":"2026-04-05T06:00:02.000160","MEAN_MOTION":15.67204662,"ECCENTRICITY":0.00018741,"INCLINATION":97.2849,"RA_OF_ASC_NODE":330.843,"ARG_OF_PERICENTER":106.5105,"MEAN_ANOMALY":169.7426,"EPHEMERIS_TYPE":0,"CLASSIFICATION_TYPE":"U","NORAD_CAT_ID":68215,"ELEMENT_SET_NO":999,"REV_AT_EPOCH":417,"BSTAR":-0.021115534,"MEAN_MOTION_DOT":-0.01991215,"MEAN_MOTION_DDOT":0},{"OBJECT_NAME":"STARLINK-37014","OBJECT_ID":"2026-053K","EPOCH":"2026-04-05T06:00:01.779840","MEAN_MOTION":15.80886959,"ECCENTRICITY":0.00021171,"INCLINATION":97.2842,"RA_OF_ASC_NODE":330.879,"ARG_OF_PERICENTER":118.1666,"MEAN_ANOMALY":241.9817,"EPHEMERIS_TYPE":0,"CLASSIFICATION_TYPE":"U","NORAD_CAT_ID":68216,"ELEMENT_SET_NO":999,"REV_AT_EPOCH":425,"BSTAR":0.0011130917,"MEAN_MOTION_DOT":0.00219228,"MEAN_MOTION_DDOT":0},{"OBJECT_NAME":"STARLINK-37011","OBJECT_ID":"2026-053L","EPOCH":"2026-04-05T05:58:57.235584","MEAN_MOTION":15.80873773,"ECCENTRICITY":0.0001794,"INCLINATION":97.2839,"RA_OF_ASC_NODE":330.8796,"ARG_OF_PERICENTER":52.3546,"MEAN_ANOMALY":307.7885,"EPHEMERIS_TYPE":0,"CLASSIFICATION_TYPE":"U","NORAD_CAT_ID":68217,"ELEMENT_SET_NO":999,"REV_AT_EPOCH":425,"BSTAR":0.0010610653,"MEAN_MOTION_DOT":0.00208588,"MEAN_MOTION_DDOT":0},{"OBJECT_NAME":"STARLINK-37108","OBJECT_ID":"2026-053M","EPOCH":"2026-04-05T05:57:52.122816","MEAN_MOTION":15.80906728,"ECCENTRICITY":0.00013255,"INCLINATION":97.2839,"RA_OF_ASC_NODE":330.8811,"ARG_OF_PERICENTER":68.8224,"MEAN_ANOMALY":291.3186,"EPHEMERIS_TYPE":0,"CLASSIFICATION_TYPE":"U","NORAD_CAT_ID":68218,"ELEMENT_SET_NO":999,"REV_AT_EPOCH":425,"BSTAR":0.0013838659,"MEAN_MOTION_DOT":0.00274583,"MEAN_MOTION_DDOT":0},{"OBJECT_NAME":"STARLINK-37106","OBJECT_ID":"2026-053N","EPOCH":"2026-04-05T05:56:47.178528","MEAN_MOTION":15.80871826,"ECCENTRICITY":0.00019082,"INCLINATION":97.2837,"RA_OF_ASC_NODE":330.8818,"ARG_OF_PERICENTER":57.567,"MEAN_ANOMALY":302.5782,"EPHEMERIS_TYPE":0,"CLASSIFICATION_TYPE":"U","NORAD_CAT_ID":68219,"ELEMENT_SET_NO":999,"REV_AT_EPOCH":425,"BSTAR":0.0010179363,"MEAN_MOTION_DOT":0.00199887,"MEAN_MOTION_DDOT":0},{"OBJECT_NAME":"STARLINK-37030","OBJECT_ID":"2026-053P","EPOCH":"2026-04-05T07:26:10.071456","MEAN_MOTION":15.79370756,"ECCENTRICITY":0.00011575,"INCLINATION":97.284,"RA_OF_ASC_NODE":330.95,"ARG_OF_PERICENTER":149.4756,"MEAN_ANOMALY":210.6579,"EPHEMERIS_TYPE":0,"CLASSIFICATION_TYPE":"U","NORAD_CAT_ID":68220,"ELEMENT_SET_NO":999,"REV_AT_EPOCH":426,"BSTAR":-0.0046325428,"MEAN_MOTION_DOT":-0.00761911,"MEAN_MOTION_DDOT":0},{"OBJECT_NAME":"STARLINK-37012","OBJECT_ID":"2026-053Q","EPOCH":"2026-04-05T05:55:42.193632","MEAN_MOTION":15.8091695,"ECCENTRICITY":0.00015309,"INCLINATION":97.2841,"RA_OF_ASC_NODE":330.8833,"ARG_OF_PERICENTER":59.6048,"MEAN_ANOMALY":300.5371,"EPHEMERIS_TYPE":0,"CLASSIFICATION_TYPE":"U","NORAD_CAT_ID":68221,"ELEMENT_SET_NO":999,"REV_AT_EPOCH":425,"BSTAR":0.0014326046,"MEAN_MOTION_DOT":0.00284726,"MEAN_MOTION_DDOT":0},{"OBJECT_NAME":"STARLINK-37110","OBJECT_ID":"2026-053R","EPOCH":"2026-04-05T04:22:22.831680","MEAN_MOTION":15.80877227,"ECCENTRICITY":0.00010482,"INCLINATION":97.2832,"RA_OF_ASC_NODE":330.8176,"ARG_OF_PERICENTER":106.8547,"MEAN_ANOMALY":253.2837,"EPHEMERIS_TYPE":0,"CLASSIFICATION_TYPE":"U","NORAD_CAT_ID":68222,"ELEMENT_SET_NO":999,"REV_AT_EPOCH":424,"BSTAR":0.0010798972,"MEAN_MOTION_DOT":0.00212417,"MEAN_MOTION_DDOT":0},{"OBJECT_NAME":"STARLINK-37025","OBJECT_ID":"2026-053S","EPOCH":"2026-04-05T05:52:27.347808","MEAN_MOTION":15.80900017,"ECCENTRICITY":0.00017751,"INCLINATION":97.2839,"RA_OF_ASC_NODE":330.8848,"ARG_OF_PERICENTER":56.7312,"MEAN_ANOMALY":303.4127,"EPHEMERIS_TYPE":0,"CLASSIFICATION_TYPE":"U","NORAD_CAT_ID":68223,"ELEMENT_SET_NO":999,"REV_AT_EPOCH":425,"BSTAR":0.0013168942,"MEAN_MOTION_DOT":0.00260793,"MEAN_MOTION_DDOT":0},{"OBJECT_NAME":"STARLINK-36977","OBJECT_ID":"2026-053T","EPOCH":"2026-04-05T06:00:02.000160","MEAN_MOTION":15.79640467,"ECCENTRICITY":0.00013871,"INCLINATION":97.2849,"RA_OF_ASC_NODE":330.8907,"ARG_OF_PERICENTER":99.3993,"MEAN_ANOMALY":287.5277,"EPHEMERIS_TYPE":0,"CLASSIFICATION_TYPE":"U","NORAD_CAT_ID":68224,"ELEMENT_SET_NO":999,"REV_AT_EPOCH":417,"BSTAR":-0.00015962329,"MEAN_MOTION_DOT":-0.00029028,"MEAN_MOTION_DDOT":0},{"OBJECT_NAME":"STARLINK-36960","OBJECT_ID":"2026-053U","EPOCH":"2026-04-05T05:50:17.592288","MEAN_MOTION":15.80871542,"ECCENTRICITY":0.00018094,"INCLINATION":97.2839,"RA_OF_ASC_NODE":330.887,"ARG_OF_PERICENTER":78.9981,"MEAN_ANOMALY":281.1491,"EPHEMERIS_TYPE":0,"CLASSIFICATION_TYPE":"U","NORAD_CAT_ID":68225,"ELEMENT_SET_NO":999,"REV_AT_EPOCH":423,"BSTAR":0.0009694017,"MEAN_MOTION_DOT":0.00190132,"MEAN_MOTION_DDOT":0},{"OBJECT_NAME":"STARLINK-37038","OBJECT_ID":"2026-053V","EPOCH":"2026-04-05T05:48:07.943904","MEAN_MOTION":15.80901186,"ECCENTRICITY":0.0001939,"INCLINATION":97.2834,"RA_OF_ASC_NODE":330.8886,"ARG_OF_PERICENTER":67.9868,"MEAN_ANOMALY":292.1606,"EPHEMERIS_TYPE":0,"CLASSIFICATION_TYPE":"U","NORAD_CAT_ID":68226,"ELEMENT_SET_NO":999,"REV_AT_EPOCH":423,"BSTAR":0.0015074155,"MEAN_MOTION_DOT":0.00299915,"MEAN_MOTION_DDOT":0},{"OBJECT_NAME":"STARLINK-37083","OBJECT_ID":"2026-053W","EPOCH":"2026-04-05T05:49:12.908064","MEAN_MOTION":15.80883125,"ECCENTRICITY":0.00013869,"INCLINATION":97.2834,"RA_OF_ASC_NODE":330.8881,"ARG_OF_PERICENTER":95.4125,"MEAN_ANOMALY":264.7301,"EPHEMERIS_TYPE":0,"CLASSIFICATION_TYPE":"U","NORAD_CAT_ID":68227,"ELEMENT_SET_NO":999,"REV_AT_EPOCH":422,"BSTAR":0.0013035518,"MEAN_MOTION_DOT":0.00257861,"MEAN_MOTION_DDOT":0},{"OBJECT_NAME":"STARLINK-37050","OBJECT_ID":"2026-053X","EPOCH":"2026-04-05T05:47:02.527872","MEAN_MOTION":15.8086879,"ECCENTRICITY":0.00013065,"INCLINATION":97.2842,"RA_OF_ASC_NODE":330.8906,"ARG_OF_PERICENTER":57.4231,"MEAN_ANOMALY":302.7163,"EPHEMERIS_TYPE":0,"CLASSIFICATION_TYPE":"U","NORAD_CAT_ID":68228,"ELEMENT_SET_NO":999,"REV_AT_EPOCH":423,"BSTAR":0.00077432435,"MEAN_MOTION_DOT":0.00151138,"MEAN_MOTION_DDOT":0}]
